IRIDIUM 144             
1 43249U 18030A   24309.61683830  .00001198  00000+0  42049-3 0  9997
2 43249  86.4020 176.8397 0002159  79.4066 280.7373 14.34223106345631
IRIDIUM 149             
1 43250U 18030B   24310.11156599  .00000247  00000+0  81258-4 0  9993
2 43250  86.4015 176.6067 0001906  75.6131 284.5276 14.34217723345721
IRIDIUM 157             
1 43251U 18030C   24309.15382605  .00001183  00000+0  41517-3 0  9998
2 43251  86.4021 177.0464 0001742  81.9981 278.1413 14.34224604345566
IRIDIUM 140             
1 43252U 18030D   24309.87054037  .00001124  00000+0  39433-3 0  9992
2 43252  86.4017 176.7614 0002164  83.1769 276.9673 14.34222036345721
IRIDIUM 145             
1 43253U 18030E   24309.99739463  .00000038  00000+0  65943-5 0  9999
2 43253  86.4016 176.6819 0002423  73.6100 286.5362 14.34214291345678
IRIDIUM 146             
1 43254U 18030F   24309.35045539  .00000405  00000+0  13746-3 0  9994
2 43254  86.4020 176.9662 0002250  77.1456 282.9991 14.34218474345590
IRIDIUM 148             
1 43255U 18030G   24309.87688954  .00001146  00000+0  40210-3 0  9995
2 43255  86.4020 176.7807 0001917  77.6962 282.4448 14.34220164345700
IRIDIUM 142             
1 43256U 18030H   24309.91494479  .00000178  00000+0  56600-4 0  9993
2 43256  86.4017 176.6753 0001931  72.4960 287.6446 14.34218898345675
